NUSAT-6 (HYPATIA)       
1 46272U 20061A   20252.82427666  .00000359  00000-0  22708-4 0  9992
2 46272  97.4681 325.8157 0006079 198.5434 161.5578 15.15060911   861
2020-061B               
1 46273U 20061B   20253.15411866  .00000244  00000-0  16477-4 0  9994
2 46273  97.4681 326.1406 0005660 197.7023 162.4013 15.15158044   918
2020-061C               
1 46274U 20061C   20253.15384062  .00000226  00000-0  15525-4 0  9995
2 46274  97.4682 326.1411 0005305 197.5540 162.5510 15.15227909   914
2020-061D               
1 46275U 20061D   20253.15094429  .00000170  00000-0  12280-4 0  9994
2 46275  97.4642 326.1419 0000758 135.4381 224.6912 15.15957850   911
2020-061F               
1 46277U 20061F   20253.15050017  .00000247  00000-0  16233-4 0  9998
2 46277  97.4642 326.1425 0000276 149.1244 211.0005 15.16069364   913
GHGSAT-C1               
1 46278U 20061G   20253.14954547  .00000389  00000-0  23479-4 0  9996
2 46278  97.4643 326.1437 0001746   9.2492 350.8773 15.16311071   911
STARLINK-1734           
1 46325U 20062A   20252.91667824  .00161431  11734-4  10248-3 0  9998
2 46325  52.9966  43.3067 0031785  58.6134 218.3195 16.15915973  2113
